{
  "norad_id": 63602,
  "name": "SHIYAN-27 OBJECT D",
  "history": [
    {
      "epoch": "2026-03-28T22:39:23.290848Z",
      "apogee_km": 1046.3868010877823,
      "perigee_km": 1045.0821299164354,
      "latitude_deg": -3.198636639319894e-05,
      "longitude_deg": -69.84364385290834,
      "height_km": 1048.647388886742,
      "semi_major_axis_km": 7423.871465502109,
      "eccentricity": 8.787e-05,
      "inclination_deg": 99.6967,
      "raan_deg": 96.3606,
      "arg_perigee_deg": 100.4803,
      "mean_anomaly_deg": 259.6434,
      "mean_motion_rev_day": 13.57241392
    },
    {
      "epoch": "2026-03-29T05:43:59.805696Z",
      "apogee_km": 1046.3889920375423,
      "perigee_km": 1045.079421156699,
      "latitude_deg": 2.7228900374402152e-05,
      "longitude_deg": -175.99583326591923,
      "height_km": 1048.6464578194314,
      "semi_major_axis_km": 7423.87120659712,
      "eccentricity": 8.82e-05,
      "inclination_deg": 99.6968,
      "raan_deg": 96.6512,
      "arg_perigee_deg": 100.3824,
      "mean_anomaly_deg": 259.7414,
      "mean_motion_rev_day": 13.57241463
    },
    {
      "epoch": "2026-03-30T04:43:58.480896Z",
      "apogee_km": 1046.393995463115,
      "perigee_km": 1045.0740311969457,
      "latitude_deg": 4.3053038685515785e-05,
      "longitude_deg": -160.99047666393662,
      "height_km": 1048.645364673968,
      "semi_major_axis_km": 7423.87101333003,
      "eccentricity": 8.89e-05,
      "inclination_deg": 99.6967,
      "raan_deg": 97.5956,
      "arg_perigee_deg": 100.2213,
      "mean_anomaly_deg": 259.9026,
      "mean_motion_rev_day": 13.57241516
    },
    {
      "epoch": "2026-03-30T06:30:07.609824Z",
      "apogee_km": 1046.3946453771414,
      "perigee_km": 1045.0733448174342,
      "latitude_deg": 4.098714486584671e-05,
      "longitude_deg": 172.4715280084015,
      "height_km": 1048.6483568871477,
      "semi_major_axis_km": 7423.870995097287,
      "eccentricity": 8.899e-05,
      "inclination_deg": 99.6967,
      "raan_deg": 97.6683,
      "arg_perigee_deg": 100.4762,
      "mean_anomaly_deg": 259.6477,
      "mean_motion_rev_day": 13.57241521
    },
    {
      "epoch": "2026-03-30T13:34:44.122080Z",
      "apogee_km": 1046.3961181663071,
      "perigee_km": 1045.0715511319895,
      "latitude_deg": 1.6149666332644878e-05,
      "longitude_deg": 66.3192639548153,
      "height_km": 1048.648492608768,
      "semi_major_axis_km": 7423.870834649148,
      "eccentricity": 8.921e-05,
      "inclination_deg": 99.6961,
      "raan_deg": 97.9588,
      "arg_perigee_deg": 100.4743,
      "mean_anomaly_deg": 259.6496,
      "mean_motion_rev_day": 13.57241565
    },
    {
      "epoch": "2026-03-30T22:25:29.758944Z",
      "apogee_km": 1046.396832936426,
      "perigee_km": 1045.0701872762693,
      "latitude_deg": 1.2445042585291156e-05,
      "longitude_deg": -66.37098132099688,
      "height_km": 1048.6525380068663,
      "semi_major_axis_km": 7423.870510106347,
      "eccentricity": 8.935e-05,
      "inclination_deg": 99.6961,
      "raan_deg": 98.322,
      "arg_perigee_deg": 100.8417,
      "mean_anomaly_deg": 259.2822,
      "mean_motion_rev_day": 13.57241654
    },
    {
      "epoch": "2026-03-31T21:25:28.416864Z",
      "apogee_km": 1046.4049947590865,
      "perigee_km": 1045.0612742647409,
      "latitude_deg": 1.5820049893619985e-05,
      "longitude_deg": -51.365549691157625,
      "height_km": 1048.6644996300697,
      "semi_major_axis_km": 7423.870134511913,
      "eccentricity": 9.05e-05,
      "inclination_deg": 99.696,
      "raan_deg": 99.2664,
      "arg_perigee_deg": 101.7757,
      "mean_anomaly_deg": 258.3483,
      "mean_motion_rev_day": 13.57241757
    },
    {
      "epoch": "2026-04-01T20:25:27.065280Z",
      "apogee_km": 1046.4104196450762,
      "perigee_km": 1045.0548210524003,
      "latitude_deg": -9.051728177394425e-05,
      "longitude_deg": -36.36005983193179,
      "height_km": 1048.65951171931,
      "semi_major_axis_km": 7423.869620348738,
      "eccentricity": 9.13e-05,
      "inclination_deg": 99.6967,
      "raan_deg": 100.2108,
      "arg_perigee_deg": 101.2873,
      "mean_anomaly_deg": 258.8367,
      "mean_motion_rev_day": 13.57241898
    },
    {
      "epoch": "2026-04-02T21:11:34.833984Z",
      "apogee_km": 1046.4174058886965,
      "perigee_km": 1045.0469596375578,
      "latitude_deg": -5.816348133944281e-06,
      "longitude_deg": -47.89266251299196,
      "height_km": 1048.6599077356527,
      "semi_major_axis_km": 7423.869182763127,
      "eccentricity": 9.23e-05,
      "inclination_deg": 99.6959,
      "raan_deg": 101.2278,
      "arg_perigee_deg": 101.2345,
      "mean_anomaly_deg": 258.8897,
      "mean_motion_rev_day": 13.57242018
    },
    {
      "epoch": "2026-04-02T22:57:43.954272Z",
      "apogee_km": 1046.416552005695,
      "perigee_km": 1045.0469966942019,
      "latitude_deg": -4.034715696589762e-06,
      "longitude_deg": -74.4306224298388,
      "height_km": 1048.6577731502593,
      "semi_major_axis_km": 7423.868774349948,
      "eccentricity": 9.224e-05,
      "inclination_deg": 99.6959,
      "raan_deg": 101.3005,
      "arg_perigee_deg": 101.0947,
      "mean_anomaly_deg": 259.0295,
      "mean_motion_rev_day": 13.5724213
    },
    {
      "epoch": "2026-04-03T20:11:33.461664Z",
      "apogee_km": 1046.4225791380832,
      "perigee_km": 1045.040254838841,
      "latitude_deg": 8.322981527041444e-05,
      "longitude_deg": -32.88712041115056,
      "height_km": 1048.6534435692788,
      "semi_major_axis_km": 7423.868416988462,
      "eccentricity": 9.31e-05,
      "inclination_deg": 99.6959,
      "raan_deg": 102.1722,
      "arg_perigee_deg": 100.6581,
      "mean_anomaly_deg": 259.4663,
      "mean_motion_rev_day": 13.57242228
    },
    {
      "epoch": "2026-04-04T20:57:41.208768Z",
      "apogee_km": 1046.4279821403352,
      "perigee_km": 1045.0337797522943,
      "latitude_deg": -2.5609430978360697e-05,
      "longitude_deg": -44.41950158902918,
      "height_km": 1048.64698215573,
      "semi_major_axis_km": 7423.8678809463145,
      "eccentricity": 9.39e-05,
      "inclination_deg": 99.6959,
      "raan_deg": 103.1893,
      "arg_perigee_deg": 100.0713,
      "mean_anomaly_deg": 260.0531,
      "mean_motion_rev_day": 13.57242375
    },
    {
      "epoch": "2026-04-05T14:39:12.453120Z",
      "apogee_km": 1046.4305880437041,
      "perigee_km": 1045.030743556642,
      "latitude_deg": 4.569599223788222e-05,
      "longitude_deg": 50.20021514873138,
      "height_km": 1048.6525816063836,
      "semi_major_axis_km": 7423.867665800173,
      "eccentricity": 9.428e-05,
      "inclination_deg": 99.6959,
      "raan_deg": 103.9158,
      "arg_perigee_deg": 100.5151,
      "mean_anomaly_deg": 259.6094,
      "mean_motion_rev_day": 13.57242434
    },
    {
      "epoch": "2026-04-05T19:57:39.825216Z",
      "apogee_km": 1046.4313658542715,
      "perigee_km": 1045.02973966031,
      "latitude_deg": -7.52415159324312e-05,
      "longitude_deg": -29.41389061508909,
      "height_km": 1048.6496321859122,
      "semi_major_axis_km": 7423.8675527572905,
      "eccentricity": 9.44e-05,
      "inclination_deg": 99.6959,
      "raan_deg": 104.1337,
      "arg_perigee_deg": 100.2647,
      "mean_anomaly_deg": 259.8597,
      "mean_motion_rev_day": 13.57242465
    },
    {
      "epoch": "2026-04-06T06:34:34.567680Z",
      "apogee_km": 1046.432441920405,
      "perigee_km": 1045.0282916466513,
      "latitude_deg": 1.328765876571299e-05,
      "longitude_deg": 171.3579487260463,
      "height_km": 1048.6526708483584,
      "semi_major_axis_km": 7423.867366783528,
      "eccentricity": 9.457e-05,
      "inclination_deg": 99.6959,
      "raan_deg": 104.5696,
      "arg_perigee_deg": 100.5147,
      "mean_anomaly_deg": 259.6098,
      "mean_motion_rev_day": 13.57242516
    },
    {
      "epoch": "2026-04-07T14:25:18.794208Z",
      "apogee_km": 1046.4365510870239,
      "perigee_km": 1045.0233437749112,
      "latitude_deg": -5.555380241840564e-05,
      "longitude_deg": 53.673426585775196,
      "height_km": 1048.6528560836787,
      "semi_major_axis_km": 7423.866947430967,
      "eccentricity": 9.518e-05,
      "inclination_deg": 99.6958,
      "raan_deg": 105.8772,
      "arg_perigee_deg": 100.4961,
      "mean_anomaly_deg": 259.6284,
      "mean_motion_rev_day": 13.57242631
    },
    {
      "epoch": "2026-04-07T21:29:55.289184Z",
      "apogee_km": 1046.4381296343772,
      "perigee_km": 1045.021655831245,
      "latitude_deg": 2.4520738205216416e-05,
      "longitude_deg": -52.478684309281284,
      "height_km": 1048.655027005151,
      "semi_major_axis_km": 7423.866892732811,
      "eccentricity": 9.54e-05,
      "inclination_deg": 99.6958,
      "raan_deg": 106.1678,
      "arg_perigee_deg": 100.6559,
      "mean_anomaly_deg": 259.4687,
      "mean_motion_rev_day": 13.57242646
    },
    {
      "epoch": "2026-04-08T15:11:26.520576Z",
      "apogee_km": 1046.4437233182634,
      "perigee_km": 1045.015668320656,
      "latitude_deg": 3.379551536017226e-05,
      "longitude_deg": 42.140996074059544,
      "height_km": 1048.65491918619,
      "semi_major_axis_km": 7423.86669581946,
      "eccentricity": 9.618e-05,
      "inclination_deg": 99.6958,
      "raan_deg": 106.8942,
      "arg_perigee_deg": 100.5769,
      "mean_anomaly_deg": 259.5478,
      "mean_motion_rev_day": 13.572427
    },
    {
      "epoch": "2026-04-09T19:29:52.483200Z",
      "apogee_km": 1046.4507376869697,
      "perigee_km": 1045.0075381097622,
      "latitude_deg": 4.412677213349734e-06,
      "longitude_deg": -22.467415909459366,
      "height_km": 1048.6503948884463,
      "semi_major_axis_km": 7423.866137898366,
      "eccentricity": 9.72e-05,
      "inclination_deg": 99.6964,
      "raan_deg": 108.0565,
      "arg_perigee_deg": 100.1474,
      "mean_anomaly_deg": 259.9774,
      "mean_motion_rev_day": 13.57242853
    }
  ]
}